{"type": "FeatureCollection", "features": [ {"type": "Feature", "properties": {"norad_id": 41836, "name": "HIMAWARI-9", "group": "weather", "lat": -0.001869075190276255, "lon": 134.9259047999675, "alt_km": 35790.96320941462, "timestamp": "2025-12-17T17:50:18.895069+00:00", "meta": {"OBJECT_NAME": "HIMAWARI-9", "OBJECT_ID": "2016-064A", "EPOCH": "2025-12-16T14:01:33.494016", "MEAN_MOTION": 1.00269191, "ECCENTRICITY": 9.983e-05, "INCLINATION": 0.0171, "RA_OF_ASC_NODE": 275.3759, "ARG_OF_PERICENTER": 22.8561, "MEAN_ANOMALY": 138.3893, "EPHEMERIS_TYPE": 0, "CLASSIFICATION_TYPE": "U", "NORAD_CAT_ID": 41836, "ELEMENT_SET_NO": 999, "REV_AT_EPOCH": 3337, "BSTAR": 0, "MEAN_MOTION_DOT": -2.51e-06, "MEAN_MOTION_DDOT": 0}, "tle": {"line1": "1 41836U 16064A   25350.58441544 -.00000251  00000+0  00000+0 0  9996", "line2": "2 41836   0.0171 275.3759 0000998  22.8561 138.3893  1.00269191 33371"}}, "geometry": {"type": "Point", "coordinates": [134.9259047999675, -0.001869075190276255]}}, {"type": "Feature", "properties": {"norad_id": 41866, "name": "GOES 16", "group": "weather", "lat": 0.008541881722218262, "lon": -110.50235773047584, "alt_km": 35773.593179156815, "timestamp": "2025-12-17T17:50:18.895082+00:00", "meta": {"OBJECT_NAME": "GOES 16", "OBJECT_ID": "2016-071A", "EPOCH": "2025-12-16T23:07:52.980960", "MEAN_MOTION": 1.00271853, "ECCENTRICITY": 0.00030505, "INCLINATION": 0.0736, "RA_OF_ASC_NODE": 102.337, "ARG_OF_PERICENTER": 162.4144, "MEAN_ANOMALY": 63.3907, "EPHEMERIS_TYPE": 0, "CLASSIFICATION_TYPE": "U", "NORAD_CAT_ID": 41866, "ELEMENT_SET_NO": 999, "REV_AT_EPOCH": 3327, "BSTAR": 0, "MEAN_MOTION_DOT": -6.7e-07, "MEAN_MOTION_DDOT": 0}, "tle": {"line1": "1 41866U 16071A   25350.96380765 -.00000067  00000+0  00000+0 0  9991", "line2": "2 41866   0.0736 102.3370 0003050 162.4144  63.3907  1.00271853 33279"}}, "geometry": {"type": "Point", "coordinates": [-110.50235773047584, 0.008541881722218262]}}, {"type": "Feature", "properties": {"norad_id": 41882, "name": "FENGYUN 4A", "group": "weather", "lat": 1.1027617288470304, "lon": 117.89877946044486, "alt_km": 35793.2201583984, "timestamp": "2025-12-17T17:50:18.895095+00:00", "meta": {"OBJECT_NAME": "FENGYUN 4A", "OBJECT_ID": "2016-077A", "EPOCH": "2025-12-17T05:21:15.895296", "MEAN_MOTION": 1.00267787, "ECCENTRICITY": 0.00045456, "INCLINATION": 1.8605, "RA_OF_ASC_NODE": 82.349, "ARG_OF_PERICENTER": 143.7539, "MEAN_ANOMALY": 64.1017, "EPHEMERIS_TYPE": 0, "CLASSIFICATION_TYPE": "U", "NORAD_CAT_ID": 41882, "ELEMENT_SET_NO": 999, "REV_AT_EPOCH": 3310, "BSTAR": 0, "MEAN_MOTION_DOT": -3.34e-06, "MEAN_MOTION_DDOT": 0}, "tle": {"line1": "1 41882U 16077A   25351.22310064 -.00000334  00000+0  00000+0 0  9997", "line2": "2 41882   1.8605  82.3490 0004545 143.7539  64.1017  1.00267787 33105"}}, "geometry": {"type": "Point", "coordinates": [117.89877946044486, 1.1027617288470304]}}, {"type": "Feature", "properties": {"norad_id": 41884, "name": "CYGFM05", "group": "weather", "lat": -15.722539391614866, "lon": -141.79685275321182, "alt_km": 417.00027521912307, "timestamp": "2025-12-17T17:50:18.895137+00:00", "meta": {"OBJECT_NAME": "CYGFM05", "OBJECT_ID": "2016-078A", "EPOCH": "2025-12-17T06:06:26.856864", "MEAN_MOTION": 15.47802773, "ECCENTRICITY": 0.00106373, "INCLINATION": 34.9607, "RA_OF_ASC_NODE": 17.6362, "ARG_OF_PERICENTER": 223.7116, "MEAN_ANOMALY": 136.2764, "EPHEMERIS_TYPE": 0, "CLASSIFICATION_TYPE": "U", "NORAD_CAT_ID": 41884, "ELEMENT_SET_NO": 999, "REV_AT_EPOCH": 50046, "BSTAR": 0.00030370031, "MEAN_MOTION_DOT": 0.00016271, "MEAN_MOTION_DDOT": 0}, "tle": {"line1": "1 41884U 16078A   25351.25447751  .00016271  00000+0  30370-3 0  9990", "line2": "2 41884  34.9607  17.6362 0010637 223.7116 136.2764 15.47802773500468"}}, "geometry": {"type": "Point", "coordinates": [-141.79685275321182, -15.722539391614866]}}, {"type": "Feature", "properties": {"norad_id": 41885, "name": "CYGFM04", "group": "weather", "lat": 22.976429503244013, "lon": 131.67214710612217, "alt_km": 413.5174019056276, "timestamp": "2025-12-17T17:50:18.895152+00:00", "meta": {"OBJECT_NAME": "CYGFM04", "OBJECT_ID": "2016-078B", "EPOCH": "2025-12-17T07:58:43.992768", "MEAN_MOTION": 15.50550337, "ECCENTRICITY": 0.00097845, "INCLINATION": 34.9357, "RA_OF_ASC_NODE": 351.7702, "ARG_OF_PERICENTER": 249.677, "MEAN_ANOMALY": 110.2901, "EPHEMERIS_TYPE": 0, "CLASSIFICATION_TYPE": "U", "NORAD_CAT_ID": 41885, "ELEMENT_SET_NO": 999, "REV_AT_EPOCH": 50065, "BSTAR": 0.00032656657, "MEAN_MOTION_DOT": 0.00019288, "MEAN_MOTION_DDOT": 0}, "tle": {"line1": "1 41885U 16078B   25351.33245362  .00019288  00000+0  32657-3 0  9995", "line2": "2 41885  34.9357 351.7702 0009784 249.6770 110.2901 15.50550337500651"}}, "geometry": {"type": "Point", "coordinates": [131.67214710612217, 22.976429503244013]}}, {"type": "Feature", "properties": {"norad_id": 41886, "name": "CYGFM02", "group": "weather", "lat": 2.804310490330797, "lon": 163.31260812873083, "alt_km": 408.01118716606925, "timestamp": "2025-12-17T17:50:18.895164+00:00", "meta": {"OBJECT_NAME": "CYGFM02", "OBJECT_ID": "2016-078C", "EPOCH": "2025-12-17T07:49:27.396192", "MEAN_MOTION": 15.51943458, "ECCENTRICITY": 0.00114443, "INCLINATION": 34.9445, "RA_OF_ASC_NODE": 350.0791, "ARG_OF_PERICENTER": 249.9662, "MEAN_ANOMALY": 109.9829, "EPHEMERIS_TYPE": 0, "CLASSIFICATION_TYPE": "U", "NORAD_CAT_ID": 41886, "ELEMENT_SET_NO": 999, "REV_AT_EPOCH": 50078, "BSTAR": 0.00033418453, "MEAN_MOTION_DOT": 0.00020771, "MEAN_MOTION_DDOT": 0}, "tle": {"line1": "1 41886U 16078C   25351.32601153  .00020771  00000+0  33418-3 0  9994", "line2": "2 41886  34.9445 350.0791 0011444 249.9662 109.9829 15.51943458500788"}}, "geometry": {"type": "Point", "coordinates": [163.31260812873083, 2.804310490330797]}}, {"type": "Feature", "properties": {"norad_id": 41887, "name": "CYGFM01", "group": "weather", "lat": -34.63325624208582, "lon": -81.66917036411652, "alt_km": 418.3657164148108, "timestamp": "2025-12-17T17:50:18.895176+00:00", "meta": {"OBJECT_NAME": "CYGFM01", "OBJECT_ID": "2016-078D", "EPOCH": "2025-12-17T05:52:35.570496", "MEAN_MOTION": 15.48387033, "ECCENTRICITY": 0.00102034, "INCLINATION": 34.9438, "RA_OF_ASC_NODE": 20.0171, "ARG_OF_PERICENTER": 215.9892, "MEAN_ANOMALY": 144.0143, "EPHEMERIS_TYPE": 0, "CLASSIFICATION_TYPE": "U", "NORAD_CAT_ID": 41887, "ELEMENT_SET_NO": 999, "REV_AT_EPOCH": 50040, "BSTAR": 0.00030197247, "MEAN_MOTION_DOT": 0.00016512, "MEAN_MOTION_DDOT": 0}, "tle": {"line1": "1 41887U 16078D   25351.24485614  .00016512  00000+0  30197-3 0  9997", "line2": "2 41887  34.9438  20.0171 0010203 215.9892 144.0143 15.48387033500402"}}, "geometry": {"type": "Point", "coordinates": [-81.66917036411652, -34.63325624208582]}}, {"type": "Feature", "properties": {"norad_id": 41888, "name": "CYGFM08", "group": "weather", "lat": -14.877156868445718, "lon": -22.669099394856413, "alt_km": 418.41793665221303, "timestamp": "2025-12-17T17:50:18.895187+00:00", "meta": {"OBJECT_NAME": "CYGFM08", "OBJECT_ID": "2016-078E", "EPOCH": "2025-12-17T07:07:47.966880", "MEAN_MOTION": 15.49604831, "ECCENTRICITY": 0.00119484, "INCLINATION": 34.9467, "RA_OF_ASC_NODE": 2.614, "ARG_OF_PERICENTER": 239.2162, "MEAN_ANOMALY": 120.7384, "EPHEMERIS_TYPE": 0, "CLASSIFICATION_TYPE": "U", "NORAD_CAT_ID": 41888, "ELEMENT_SET_NO": 999, "REV_AT_EPOCH": 50064, "BSTAR": 0.00031910171, "MEAN_MOTION_DOT": 0.00018237, "MEAN_MOTION_DDOT": 0}, "tle": {"line1": "1 41888U 16078E   25351.29708295  .00018237  00000+0  31910-3 0  9996", "line2": "2 41888  34.9467   2.6140 0011948 239.2162 120.7384 15.49604831500646"}}, "geometry": {"type": "Point", "coordinates": [-22.669099394856413, -14.877156868445718]}}, {"type": "Feature", "properties": {"norad_id": 41890, "name": "CYGFM07", "group": "weather", "lat": -15.798377722620485, "lon": -35.25750320053168, "alt_km": 414.77029578278507, "timestamp": "2025-12-17T17:50:18.895199+00:00", "meta": {"OBJECT_NAME": "CYGFM07", "OBJECT_ID": "2016-078G", "EPOCH": "2025-12-17T07:08:29.320512", "MEAN_MOTION": 15.50191785, "ECCENTRICITY": 0.00101434, "INCLINATION": 34.9485, "RA_OF_ASC_NODE": 351.5658, "ARG_OF_PERICENTER": 254.5599, "MEAN_ANOMALY": 105.4003, "EPHEMERIS_TYPE": 0, "CLASSIFICATION_TYPE": "U", "NORAD_CAT_ID": 41890, "ELEMENT_SET_NO": 999, "REV_AT_EPOCH": 50066, "BSTAR": 0.00032148884, "MEAN_MOTION_DOT": 0.00018747, "MEAN_MOTION_DDOT": 0}, "tle": {"line1": "1 41890U 16078G   25351.29756158  .00018747  00000+0  32149-3 0  9991", "line2": "2 41890  34.9485 351.5658 0010143 254.5599 105.4003 15.50191785500660"}}, "geometry": {"type": "Point", "coordinates": [-35.25750320053168, -15.798377722620485]}}, {"type": "Feature", "properties": {"norad_id": 41891, "name": "CYGFM03", "group": "weather", "lat": 8.85194346777654, "lon": 157.67691186114732, "alt_km": 413.22010921508536, "timestamp": "2025-12-17T17:50:18.895210+00:00", "meta": {"OBJECT_NAME": "CYGFM03", "OBJECT_ID": "2016-078H", "EPOCH": "2025-12-17T07:51:30.021120", "MEAN_MOTION": 15.50089857, "ECCENTRICITY": 0.00096605, "INCLINATION": 34.9439, "RA_OF_ASC_NODE": 353.2914, "ARG_OF_PERICENTER": 242.9368, "MEAN_ANOMALY": 117.0368, "EPHEMERIS_TYPE": 0, "CLASSIFICATION_TYPE": "U", "NORAD_CAT_ID": 41891, "ELEMENT_SET_NO": 999, "REV_AT_EPOCH": 50064, "BSTAR": 0.00032066252, "MEAN_MOTION_DOT": 0.00018627, "MEAN_MOTION_DDOT": 0}, "tle": {"line1": "1 41891U 16078H   25351.32743080  .00018627  00000+0  32066-3 0  9991", "line2": "2 41891  34.9439 353.2914 0009660 242.9368 117.0368 15.50089857500648"}}, "geometry": {"type": "Point", "coordinates": [157.67691186114732, 8.85194346777654]}}]}